[{"OBJECT_NAME":"STARLINK-30315","OBJECT_ID":"2023-129L","EPOCH":"2026-01-25T22:43:26.878368","MEAN_MOTION":15.02535764,"ECCENTRICITY":0.00014424,"INCLINATION":43.0038,"RA_OF_ASC_NODE":352.6475,"ARG_OF_PERICENTER":263.0216,"MEAN_ANOMALY":97.0463,"EPHEMERIS_TYPE":0,"CLASSIFICATION_TYPE":"U","NORAD_CAT_ID":57708,"ELEMENT_SET_NO":999,"REV_AT_EPOCH":13422,"BSTAR":-0.00017169324,"MEAN_MOTION_DOT":-2.522e-5,"MEAN_MOTION_DDOT":0},{"OBJECT_NAME":"STARLINK-30287","OBJECT_ID":"2023-129M","EPOCH":"2026-01-25T21:17:18.746592","MEAN_MOTION":15.02539405,"ECCENTRICITY":0.00014764,"INCLINATION":43.0053,"RA_OF_ASC_NODE":353.0564,"ARG_OF_PERICENTER":258.2865,"MEAN_ANOMALY":101.7812,"EPHEMERIS_TYPE":0,"CLASSIFICATION_TYPE":"U","NORAD_CAT_ID":57709,"ELEMENT_SET_NO":999,"REV_AT_EPOCH":13421,"BSTAR":6.2815897e-5,"MEAN_MOTION_DOT":6.45e-6,"MEAN_MOTION_DDOT":0},{"OBJECT_NAME":"STARLINK-30335","OBJECT_ID":"2023-129N","EPOCH":"2026-01-25T22:48:15.517440","MEAN_MOTION":15.02563778,"ECCENTRICITY":0.00015458,"INCLINATION":43.0042,"RA_OF_ASC_NODE":352.6706,"ARG_OF_PERICENTER":302.6289,"MEAN_ANOMALY":57.4404,"EPHEMERIS_TYPE":0,"CLASSIFICATION_TYPE":"U","NORAD_CAT_ID":57710,"ELEMENT_SET_NO":999,"REV_AT_EPOCH":13422,"BSTAR":-0.00059999332,"MEAN_MOTION_DOT":-8.305e-5,"MEAN_MOTION_DDOT":0},{"OBJECT_NAME":"STARLINK-30318","OBJECT_ID":"2023-129P","EPOCH":"2026-01-25T21:26:53.913984","MEAN_MOTION":15.02541083,"ECCENTRICITY":0.00012615,"INCLINATION":43.0051,"RA_OF_ASC_NODE":353.0923,"ARG_OF_PERICENTER":260.4064,"MEAN_ANOMALY":99.6635,"EPHEMERIS_TYPE":0,"CLASSIFICATION_TYPE":"U","NORAD_CAT_ID":57711,"ELEMENT_SET_NO":999,"REV_AT_EPOCH":13407,"BSTAR":-3.5295971e-5,"MEAN_MOTION_DOT":-6.8e-6,"MEAN_MOTION_DDOT":0},{"OBJECT_NAME":"STARLINK-30348","OBJECT_ID":"2023-129Q","EPOCH":"2026-01-25T22:33:51.507936","MEAN_MOTION":15.02536871,"ECCENTRICITY":0.00012751,"INCLINATION":43.0055,"RA_OF_ASC_NODE":352.5956,"ARG_OF_PERICENTER":267.7042,"MEAN_ANOMALY":92.3654,"EPHEMERIS_TYPE":0,"CLASSIFICATION_TYPE":"U","NORAD_CAT_ID":57712,"ELEMENT_SET_NO":999,"REV_AT_EPOCH":13422,"BSTAR":2.4180546e-5,"MEAN_MOTION_DOT":1.23e-6,"MEAN_MOTION_DDOT":0},{"OBJECT_NAME":"STARLINK-30349","OBJECT_ID":"2023-129R","EPOCH":"2026-01-25T14:25:36.990048","MEAN_MOTION":15.02547899,"ECCENTRICITY":0.0001503,"INCLINATION":43.0049,"RA_OF_ASC_NODE":354.3488,"ARG_OF_PERICENTER":278.4736,"MEAN_ANOMALY":81.5936,"EPHEMERIS_TYPE":0,"CLASSIFICATION_TYPE":"U","NORAD_CAT_ID":57713,"ELEMENT_SET_NO":999,"REV_AT_EPOCH":13403,"BSTAR":6.3603e-6,"MEAN_MOTION_DOT":-1.18e-6,"MEAN_MOTION_DDOT":0},{"OBJECT_NAME":"STARLINK-30341","OBJECT_ID":"2023-129S","EPOCH":"2026-01-25T21:50:42.149184","MEAN_MOTION":15.02537888,"ECCENTRICITY":0.0001655,"INCLINATION":43.004,"RA_OF_ASC_NODE":352.3688,"ARG_OF_PERICENTER":273.5255,"MEAN_ANOMALY":86.5398,"EPHEMERIS_TYPE":0,"CLASSIFICATION_TYPE":"U","NORAD_CAT_ID":57714,"ELEMENT_SET_NO":999,"REV_AT_EPOCH":13422,"BSTAR":-8.5381431e-5,"MEAN_MOTION_DOT":-1.357e-5,"MEAN_MOTION_DDOT":0},{"OBJECT_NAME":"STARLINK-30300","OBJECT_ID":"2023-129T","EPOCH":"2026-01-25T22:38:38.810400","MEAN_MOTION":15.02529696,"ECCENTRICITY":0.00013264,"INCLINATION":43.0059,"RA_OF_ASC_NODE":352.6211,"ARG_OF_PERICENTER":274.8075,"MEAN_ANOMALY":85.2616,"EPHEMERIS_TYPE":0,"CLASSIFICATION_TYPE":"U","NORAD_CAT_ID":57715,"ELEMENT_SET_NO":999,"REV_AT_EPOCH":13422,"BSTAR":7.6657269e-5,"MEAN_MOTION_DOT":8.32e-6,"MEAN_MOTION_DDOT":0},{"OBJECT_NAME":"STARLINK-30281","OBJECT_ID":"2023-129U","EPOCH":"2026-01-25T14:11:14.352576","MEAN_MOTION":15.02548044,"ECCENTRICITY":4.64e-5,"INCLINATION":43.003,"RA_OF_ASC_NODE":354.2776,"ARG_OF_PERICENTER":254.8385,"MEAN_ANOMALY":105.2406,"EPHEMERIS_TYPE":0,"CLASSIFICATION_TYPE":"U","NORAD_CAT_ID":57716,"ELEMENT_SET_NO":999,"REV_AT_EPOCH":13403,"BSTAR":8.9354e-5,"MEAN_MOTION_DOT":1.004e-5,"MEAN_MOTION_DDOT":0},{"OBJECT_NAME":"STARLINK-30325","OBJECT_ID":"2023-129V","EPOCH":"2026-01-25T22:29:03.741504","MEAN_MOTION":15.02530937,"ECCENTRICITY":9.496e-5,"INCLINATION":43.005,"RA_OF_ASC_NODE":352.5705,"ARG_OF_PERICENTER":268.4303,"MEAN_ANOMALY":91.6431,"EPHEMERIS_TYPE":0,"CLASSIFICATION_TYPE":"U","NORAD_CAT_ID":57717,"ELEMENT_SET_NO":999,"REV_AT_EPOCH":13422,"BSTAR":0.00011984052,"MEAN_MOTION_DOT":1.415e-5,"MEAN_MOTION_DDOT":0},{"OBJECT_NAME":"STARLINK-30338","OBJECT_ID":"2023-129W","EPOCH":"2026-01-25T22:14:40.526016","MEAN_MOTION":15.02538022,"ECCENTRICITY":0.00010895,"INCLINATION":43.0043,"RA_OF_ASC_NODE":352.4949,"ARG_OF_PERICENTER":238.1011,"MEAN_ANOMALY":121.9725,"EPHEMERIS_TYPE":0,"CLASSIFICATION_TYPE":"U","NORAD_CAT_ID":57718,"ELEMENT_SET_NO":999,"REV_AT_EPOCH":13422,"BSTAR":0.00013035261,"MEAN_MOTION_DOT":1.558e-5,"MEAN_MOTION_DDOT":0},{"OBJECT_NAME":"STARLINK-30334","OBJECT_ID":"2023-129X","EPOCH":"2026-01-25T22:19:28.346880","MEAN_MOTION":15.02537701,"ECCENTRICITY":9.9e-5,"INCLINATION":43.0048,"RA_OF_ASC_NODE":352.5203,"ARG_OF_PERICENTER":268.626,"MEAN_ANOMALY":91.4469,"EPHEMERIS_TYPE":0,"CLASSIFICATION_TYPE":"U","NORAD_CAT_ID":57719,"ELEMENT_SET_NO":999,"REV_AT_EPOCH":13408,"BSTAR":4.1032171e-5,"MEAN_MOTION_DOT":3.51e-6,"MEAN_MOTION_DDOT":0},{"OBJECT_NAME":"STARLINK-30375","OBJECT_ID":"2023-131A","EPOCH":"2026-01-25T23:06:14.501376","MEAN_MOTION":15.0254035,"ECCENTRICITY":0.00016813,"INCLINATION":43.0043,"RA_OF_ASC_NODE":31.4652,"ARG_OF_PERICENTER":268.539,"MEAN_ANOMALY":91.5259,"EPHEMERIS_TYPE":0,"CLASSIFICATION_TYPE":"U","NORAD_CAT_ID":57732,"ELEMENT_SET_NO":999,"REV_AT_EPOCH":13365,"BSTAR":5.3036252e-5,"MEAN_MOTION_DOT":5.13e-6,"MEAN_MOTION_DDOT":0},{"OBJECT_NAME":"STARLINK-30310","OBJECT_ID":"2023-131B","EPOCH":"2026-01-23T18:47:26.460096","MEAN_MOTION":15.0252183,"ECCENTRICITY":0.00013949,"INCLINATION":43.0042,"RA_OF_ASC_NODE":55.403,"ARG_OF_PERICENTER":263.2315,"MEAN_ANOMALY":96.8369,"EPHEMERIS_TYPE":0,"CLASSIFICATION_TYPE":"U","NORAD_CAT_ID":57733,"ELEMENT_SET_NO":999,"REV_AT_EPOCH":13318,"BSTAR":0.00028819647,"MEAN_MOTION_DOT":3.69e-5,"MEAN_MOTION_DDOT":0},{"OBJECT_NAME":"STARLINK-30365","OBJECT_ID":"2023-131C","EPOCH":"2026-01-25T08:21:54.027936","MEAN_MOTION":15.02538601,"ECCENTRICITY":6.29e-5,"INCLINATION":43.002,"RA_OF_ASC_NODE":47.3378,"ARG_OF_PERICENTER":110.5829,"MEAN_ANOMALY":249.5081,"EPHEMERIS_TYPE":0,"CLASSIFICATION_TYPE":"U","NORAD_CAT_ID":57734,"ELEMENT_SET_NO":999,"REV_AT_EPOCH":13340,"BSTAR":1.8170788e-5,"MEAN_MOTION_DOT":4.2e-7,"MEAN_MOTION_DDOT":0},{"OBJECT_NAME":"STARLINK-30371","OBJECT_ID":"2023-131D","EPOCH":"2026-01-23T19:06:35.981856","MEAN_MOTION":15.0253539,"ECCENTRICITY":0.00010425,"INCLINATION":43.0036,"RA_OF_ASC_NODE":55.504,"ARG_OF_PERICENTER":268.8438,"MEAN_ANOMALY":91.2285,"EPHEMERIS_TYPE":0,"CLASSIFICATION_TYPE":"U","NORAD_CAT_ID":57735,"ELEMENT_SET_NO":999,"REV_AT_EPOCH":13317,"BSTAR":0.00037136811,"MEAN_MOTION_DOT":4.816e-5,"MEAN_MOTION_DDOT":0}]
