STARLINK-30315          
1 57708U 23129L   26025.94683887 -.00002522  00000+0 -17169-3 0  9991
2 57708  43.0038 352.6475 0001442 263.0216  97.0463 15.02535764134229
STARLINK-30287          
1 57709U 23129M   26025.88702253  .00000645  00000+0  62816-4 0  9996
2 57709  43.0053 353.0564 0001476 258.2865 101.7812 15.02539405134210
STARLINK-30335          
1 57710U 23129N   26025.95017960 -.00008305  00000+0 -59999-3 0  9990
2 57710  43.0042 352.6706 0001545 302.6289  57.4404 15.02563778134229
STARLINK-30318          
1 57711U 23129P   26025.89367956 -.00000680  00000+0 -35296-4 0  9990
2 57711  43.0051 353.0923 0001261 260.4064  99.6635 15.02541083134075
STARLINK-30348          
1 57712U 23129Q   26025.94017949  .00000123  00000+0  24181-4 0  9992
2 57712  43.0055 352.5956 0001275 267.7042  92.3654 15.02536871134228
STARLINK-30349          
1 57713U 23129R   26025.60112257 -.00000118  00000+0  63603-5 0  9992
2 57713  43.0049 354.3488 0001503 278.4736  81.5936 15.02547899134039
STARLINK-30341          
1 57714U 23129S   26025.91021006 -.00001357  00000+0 -85381-4 0  9991
2 57714  43.0040 352.3688 0001655 273.5255  86.5398 15.02537888134226
STARLINK-30300          
1 57715U 23129T   26025.94350475  .00000832  00000+0  76657-4 0  9991
2 57715  43.0059 352.6211 0001326 274.8075  85.2616 15.02529696134228
STARLINK-30281          
1 57716U 23129U   26025.59113834  .00001004  00000+0  89354-4 0  9999
2 57716  43.0030 354.2776 0000464 254.8385 105.2406 15.02548044134033
STARLINK-30325          
1 57717U 23129V   26025.93684886  .00001415  00000+0  11984-3 0  9997
2 57717  43.0050 352.5705 0000949 268.4303  91.6431 15.02530937134227
STARLINK-30338          
1 57718U 23129W   26025.92685794  .00001558  00000+0  13035-3 0  9993
2 57718  43.0043 352.4949 0001089 238.1011 121.9725 15.02538022134221
STARLINK-30334          
1 57719U 23129X   26025.93018920  .00000351  00000+0  41032-4 0  9995
2 57719  43.0048 352.5203 0000990 268.6260  91.4469 15.02537701134088
STARLINK-30375          
1 57732U 23131A   26025.96266784  .00000513  00000+0  53036-4 0  9996
2 57732  43.0043  31.4652 0001681 268.5390  91.5259 15.02540350133654
STARLINK-30310          
1 57733U 23131B   26023.78294514  .00003690  00000+0  28820-3 0  9998
2 57733  43.0042  55.4030 0001394 263.2315  96.8369 15.02521830133180
STARLINK-30365          
1 57734U 23131C   26025.34854199  .00000042  00000+0  18171-4 0  9991
2 57734  43.0020  47.3378 0000629 110.5829 249.5081 15.02538601133403
STARLINK-30371          
1 57735U 23131D   26023.79624979  .00004816  00000+0  37137-3 0  9995
2 57735  43.0036  55.5040 0001042 268.8438  91.2285 15.02535390133175
